start=new Date('2022-04-08T00:00:00.000Z').valueOf();
sats=[{"PERIAPSIS":"546.278","BSTAR":"0.00139130000000","INCLINATION":"53.0556","COUNTRY_CODE":"US","OBJECT_TYPE":"PAYLOAD","EPOCH":"2022-04-07T22:00:00.999936","NORAD_CAT_ID":"48594","LAUNCH_DATE":"2021-05-15","CLASSIFICATION_TYPE":"U","EPHEMERIS_TYPE":"0","OBJECT_ID":"2021-041AT","MEAN_ANOMALY":"327.6549","RCS_SIZE":"LARGE","TLE_LINE2":"2 48594  53.0556  59.0875 0001326  90.6406 327.6549 15.06405752  3584","TLE_LINE1":"1 48594U 21041AT  22097.91667824  .00020506  00000-0  13913-2 0  9993","APOAPSIS":"548.114","ARG_OF_PERICENTER":"90.6406","CENTER_NAME":"EARTH","MEAN_MOTION":"15.06405752","GP_ID":"200701059","MEAN_ELEMENT_THEORY":"SGP4","SITE":"AFETR","MEAN_MOTION_DOT":"0.00020506","PERIOD":"95.592","FILE":"3392478","ECCENTRICITY":"0.00013260","TIME_SYSTEM":"UTC","REF_FRAME":"TEME","ELEMENT_SET_NO":"999","REV_AT_EPOCH":"358","MEAN_MOTION_DDOT":"0.0000000000000","RA_OF_ASC_NODE":"59.0875","DECAY_DATE":null,"SEMIMAJOR_AXIS":"6925.331","OBJECT_NAME":"STARLINK-2251"},{"ELEMENT_SET_NO":"999","REF_FRAME":"TEME","TIME_SYSTEM":"UTC","ECCENTRICITY":"0.00014850","FILE":"3392202","SEMIMAJOR_AXIS":"6925.357","DECAY_DATE":null,"OBJECT_NAME":"STARLINK-2252","MEAN_MOTION_DDOT":"0.0000000000000","REV_AT_EPOCH":"5049","RA_OF_ASC_NODE":"90.2176","NORAD_CAT_ID":"48595","EPOCH":"2022-04-07T16:02:15.118656","COUNTRY_CODE":"US","OBJECT_TYPE":"PAYLOAD","EPHEMERIS_TYPE":"0","CLASSIFICATION_TYPE":"U","LAUNCH_DATE":"2021-05-15","BSTAR":"0.00004282000000","PERIAPSIS":"546.193","INCLINATION":"53.0547","MEAN_MOTION":"15.06397301","PERIOD":"95.592","MEAN_MOTION_DOT":"0.00000356","SITE":"AFETR","MEAN_ELEMENT_THEORY":"SGP4","GP_ID":"200673156","RCS_SIZE":"LARGE","MEAN_ANOMALY":"298.8699","OBJECT_ID":"2021-041AU","ARG_OF_PERICENTER":"61.2440","CENTER_NAME":"EARTH","APOAPSIS":"548.250","TLE_LINE1":"1 48595U 21041AU  22097.66823054  .00000356  00000-0  42820-4 0  9997","TLE_LINE2":"2 48595  53.0547  90.2176 0001485  61.2440 298.8699 15.06397301 50491"},{"REF_FRAME":"TEME","ELEMENT_SET_NO":"999","TIME_SYSTEM":"UTC","FILE":"3392202","ECCENTRICITY":"0.00018330","OBJECT_NAME":"STARLINK-2253","SEMIMAJOR_AXIS":"6925.351","DECAY_DATE":null,"RA_OF_ASC_NODE":"90.1235","MEAN_MOTION_DDOT":"0.0000000000000","REV_AT_EPOCH":"4968","CLASSIFICATION_TYPE":"U","EPHEMERIS_TYPE":"0","LAUNCH_DATE":"2021-05-15","NORAD_CAT_ID":"48596","COUNTRY_CODE":"US","OBJECT_TYPE":"PAYLOAD","EPOCH":"2022-04-07T16:34:06.100032","INCLINATION":"53.0553","PERIAPSIS":"545.947","BSTAR":"0.00007250100000","SITE":"AFETR","MEAN_MOTION_DOT":"0.00000798","PERIOD":"95.592","GP_ID":"200673651","MEAN_ELEMENT_THEORY":"SGP4","MEAN_MOTION":"15.06399161","CENTER_NAME":"EARTH","ARG_OF_PERICENTER":"51.5015","TLE_LINE2":"2 48596  53.0553  90.1235 0001833  51.5015 308.6138 15.06399161 49684","APOAPSIS":"548.486","TLE_LINE1":"1 48596U 21041AV  22097.69034838  .00000798  00000-0  72501-4 0  9994","OBJECT_ID":"2021-041AV","RCS_SIZE":"LARGE","MEAN_ANOMALY":"308.6138"},{"EPOCH":"2022-04-07T16:44:43.310400","COUNTRY_CODE":"US","OBJECT_TYPE":"PAYLOAD","NORAD_CAT_ID":"48597","LAUNCH_DATE":"2021-05-15","EPHEMERIS_TYPE":"0","CLASSIFICATION_TYPE":"U","BSTAR":"0.00011212000000","PERIAPSIS":"546.122","INCLINATION":"53.0546","MEAN_MOTION":"15.06406254","MEAN_ELEMENT_THEORY":"SGP4","GP_ID":"200700814","PERIOD":"95.592","MEAN_MOTION_DOT":"0.00001389","SITE":"AFETR","MEAN_ANOMALY":"288.3233","RCS_SIZE":"LARGE","OBJECT_ID":"2021-041AW","TLE_LINE1":"1 48597U 21041AW  22097.69772350  .00001389  00000-0  11212-3 0  9991","APOAPSIS":"548.267","TLE_LINE2":"2 48597  53.0546  90.0940 0001549  71.7924 288.3233 15.06406254 50499","CENTER_NAME":"EARTH","ARG_OF_PERICENTER":"71.7924","REF_FRAME":"TEME","ELEMENT_SET_NO":"999","FILE":"3392478","ECCENTRICITY":"0.00015490","TIME_SYSTEM":"UTC","DECAY_DATE":null,"SEMIMAJOR_AXIS":"6925.329","OBJECT_NAME":"STARLINK-2255","REV_AT_EPOCH":"5049","MEAN_MOTION_DDOT":"0.0000000000000","RA_OF_ASC_NODE":"90.0940"},{"TIME_SYSTEM":"UTC","FILE":"3392202","ECCENTRICITY":"0.00014680","ELEMENT_SET_NO":"999","REF_FRAME":"TEME","MEAN_MOTION_DDOT":"0.0000000000000","REV_AT_EPOCH":"4968","RA_OF_ASC_NODE":"90.0616","SEMIMAJOR_AXIS":"6925.336","DECAY_DATE":null,"OBJECT_NAME":"STARLINK-2256","PERIAPSIS":"546.185","BSTAR":"0.00013023000000","INCLINATION":"53.0536","NORAD_CAT_ID":"48598","COUNTRY_CODE":"US","OBJECT_TYPE":"PAYLOAD","EPOCH":"2022-04-07T16:50:01.990752","CLASSIFICATION_TYPE":"U","EPHEMERIS_TYPE":"0","LAUNCH_DATE":"2021-05-15","OBJECT_ID":"2021-041AX","MEAN_ANOMALY":"293.4565","RCS_SIZE":"LARGE","CENTER_NAME":"EARTH","ARG_OF_PERICENTER":"66.6578","TLE_LINE2":"2 48598  53.0536  90.0616 0001468  66.6578 293.4565 15.06404045 49687","TLE_LINE1":"1 48598U 21041AX  22097.70141193  .00001659  00000-0  13023-3 0  9991","APOAPSIS":"548.218","MEAN_MOTION":"15.06404045","SITE":"AFETR","PERIOD":"95.592","MEAN_MOTION_DOT":"0.00001659","GP_ID":"200673159","MEAN_ELEMENT_THEORY":"SGP4"},{"INCLINATION":"53.0555","BSTAR":"0.00078049000000","PERIAPSIS":"546.029","EPHEMERIS_TYPE":"0","CLASSIFICATION_TYPE":"U","LAUNCH_DATE":"2021-05-15","NORAD_CAT_ID":"48599","EPOCH":"2022-04-07T09:30:08.965440","COUNTRY_CODE":"US","OBJECT_TYPE":"PAYLOAD","ARG_OF_PERICENTER":"63.4061","CENTER_NAME":"EARTH","TLE_LINE1":"1 48599U 21041AY  22097.39593710  .00011366  00000-0  78049-3 0  9998","APOAPSIS":"548.331","TLE_LINE2":"2 48599  53.0555  66.4276 0001662  63.4061 296.7098 15.06410804 50809","RCS_SIZE":"LARGE","MEAN_ANOMALY":"296.7098","OBJECT_ID":"2021-041AY","PERIOD":"95.591","MEAN_MOTION_DOT":"0.00011366","SITE":"AFETR","MEAN_ELEMENT_THEORY":"SGP4","GP_ID":"200661198","MEAN_MOTION":"15.06410804","TIME_SYSTEM":"UTC","ECCENTRICITY":"0.00016620","FILE":"3391885","REF_FRAME":"TEME","ELEMENT_SET_NO":"999","RA_OF_ASC_NODE":"66.4276","MEAN_MOTION_DDOT":"0.0000000000000","REV_AT_EPOCH":"5080","OBJECT_NAME":"STARLINK-2274","SEMIMAJOR_AXIS":"6925.315","DECAY_DATE":null},{"MEAN_MOTION_DDOT":"0.0000000000000","REV_AT_EPOCH":"5059","RA_OF_ASC_NODE":"81.2543","SEMIMAJOR_AXIS":"6925.359","DECAY_DATE":null,"OBJECT_NAME":"STARLINK-2275","TIME_SYSTEM":"UTC","FILE":"3392203","ECCENTRICITY":"0.00016550","ELEMENT_SET_NO":"999","REF_FRAME":"TEME","OBJECT_ID":"2021-041AZ","RCS_SIZE":"LARGE","MEAN_ANOMALY":"280.9914","CENTER_NAME":"EARTH","ARG_OF_PERICENTER":"79.1261","TLE_LINE2":"2 48600  53.0542  81.2543 0001655  79.1261 280.9914 15.06396754 50593","TLE_LINE1":"1 48600U 21041AZ  22097.43325306  .00000162  00000-0  29794-4 0  9996","APOAPSIS":"548.370","MEAN_MOTION":"15.06396754","SITE":"AFETR","PERIOD":"95.592","MEAN_MOTION_DOT":"0.00000162","GP_ID":"200673181","MEAN_ELEMENT_THEORY":"SGP4","PERIAPSIS":"546.077","BSTAR":"0.00002979400000","INCLINATION":"53.0542","NORAD_CAT_ID":"48600","COUNTRY_CODE":"US","OBJECT_TYPE":"PAYLOAD","EPOCH":"2022-04-07T10:23:53.064384","CLASSIFICATION_TYPE":"U","EPHEMERIS_TYPE":"0","LAUNCH_DATE":"2021-05-15"},{"ECCENTRICITY":"0.00015770","FILE":"3392478","TIME_SYSTEM":"UTC","REF_FRAME":"TEME","ELEMENT_SET_NO":"999","RA_OF_ASC_NODE":"65.3886","REV_AT_EPOCH":"5082","MEAN_MOTION_DDOT":"0.0000000000000","OBJECT_NAME":"STARLINK-2713","DECAY_DATE":null,"SEMIMAJOR_AXIS":"6925.321","INCLINATION":"53.0556","PERIAPSIS":"546.094","BSTAR":"0.00021320000000","LAUNCH_DATE":"2021-05-15","CLASSIFICATION_TYPE":"U","EPHEMERIS_TYPE":"0","OBJECT_TYPE":"PAYLOAD","COUNTRY_CODE":"US","EPOCH":"2022-04-07T15:04:31.871424","NORAD_CAT_ID":"48602","TLE_LINE2":"2 48602  53.0556  65.3886 0001577  57.0647 303.0493 15.06409051 50829","APOAPSIS":"548.278","TLE_LINE1":"1 48602U 21041BB  22097.62814666  .00002896  00000-0  21320-3 0  9993","ARG_OF_PERICENTER":"57.0647","CENTER_NAME":"EARTH","OBJECT_ID":"2021-041BB","RCS_SIZE":"LARGE","MEAN_ANOMALY":"303.0493","GP_ID":"200701315","MEAN_ELEMENT_THEORY":"SGP4","SITE":"AFETR","PERIOD":"95.592","MEAN_MOTION_DOT":"0.00002896","MEAN_MOTION":"15.06409051"},{"PERIAPSIS":"546.040","BSTAR":"0.00007861900000","INCLINATION":"53.0556","NORAD_CAT_ID":"48603","COUNTRY_CODE":"US","OBJECT_TYPE":"PAYLOAD","EPOCH":"2022-04-07T06:36:56.434752","CLASSIFICATION_TYPE":"U","EPHEMERIS_TYPE":"0","LAUNCH_DATE":"2021-05-15","OBJECT_ID":"2021-041BC","MEAN_ANOMALY":"292.2404","RCS_SIZE":"LARGE","ARG_OF_PERICENTER":"67.8761","CENTER_NAME":"EARTH","TLE_LINE2":"2 48603  53.0556  61.9678 0001654  67.8761 292.2404 15.06409202 50855","TLE_LINE1":"1 48603U 21041BC  22097.27565318  .00000890  00000-0  78619-4 0  9998","APOAPSIS":"548.331","MEAN_MOTION":"15.06409202","SITE":"AFETR","MEAN_MOTION_DOT":"0.00000890","PERIOD":"95.592","GP_ID":"200673173","MEAN_ELEMENT_THEORY":"SGP4","TIME_SYSTEM":"UTC","FILE":"3392213","ECCENTRICITY":"0.00016540","ELEMENT_SET_NO":"999","REF_FRAME":"TEME","MEAN_MOTION_DDOT":"0.0000000000000","REV_AT_EPOCH":"5085","RA_OF_ASC_NODE":"61.9678","SEMIMAJOR_AXIS":"6925.320","DECAY_DATE":null,"OBJECT_NAME":"STARLINK-2714"},{"ELEMENT_SET_NO":"999","REF_FRAME":"TEME","TIME_SYSTEM":"UTC","FILE":"3392478","ECCENTRICITY":"0.00017350","OBJECT_NAME":"STARLINK-2757","SEMIMAJOR_AXIS":"6925.343","DECAY_DATE":null,"RA_OF_ASC_NODE":"90.1884","MEAN_MOTION_DDOT":"0.0000000000000","REV_AT_EPOCH":"5049","EPHEMERIS_TYPE":"0","CLASSIFICATION_TYPE":"U","LAUNCH_DATE":"2021-05-15","NORAD_CAT_ID":"48604","EPOCH":"2022-04-07T16:12:52.056864","COUNTRY_CODE":"US","OBJECT_TYPE":"PAYLOAD","INCLINATION":"53.0551","BSTAR":"0.00006791400000","PERIAPSIS":"546.007","MEAN_MOTION_DOT":"0.00000730","PERIOD":"95.592","SITE":"AFETR","MEAN_ELEMENT_THEORY":"SGP4","GP_ID":"200701816","MEAN_MOTION":"15.06401783","CENTER_NAME":"EARTH","ARG_OF_PERICENTER":"46.8513","TLE_LINE1":"1 48604U 21041BD  22097.67560251  .00000730  00000-0  67914-4 0  9993","APOAPSIS":"548.410","TLE_LINE2":"2 48604  53.0551  90.1884 0001735  46.8513 313.2621 15.06401783 50497","RCS_SIZE":"LARGE","MEAN_ANOMALY":"313.2621","OBJECT_ID":"2021-041BD"}];
